GLOBALSTAR M075 [+]     
1 37192U 10054E   23251.60641042 -.00000095  00000+0  49199-4 0  9998
2 37192  51.9977 353.2794 0000445  90.8544  13.3357 12.62260830594222
GLOBALSTAR M073 [+]     
1 37193U 10054F   23251.20446545 -.00000082  00000+0  12133-3 0  9999
2 37193  52.0042 267.8297 0000310  93.8991 342.7219 12.62267267596001
GLOBALSTAR M083 [+]     
1 37739U 11033A   23251.22314845 -.00000111  00000+0 -38369-4 0  9996
2 37739  51.9843 217.3865 0000116 109.2033 353.4202 12.62268663565028
GLOBALSTAR M088 [+]     
1 37740U 11033B   23251.04899670 -.00000097  00000+0  35367-4 0  9999
2 37740  51.9724 123.9549 0000449  52.8944  97.5738 12.62265293560540
GLOBALSTAR M091 [+]     
1 37741U 11033C   23251.27745267 -.00000101  00000+0  17000-4 0  9997
2 37741  51.9991  85.6540 0000473  67.5238 340.9832 12.62266088561362
GLOBALSTAR M085 [+]     
1 37742U 11033D   23251.58757088 -.00000097  00000+0  35861-4 0  9995
2 37742  51.9885  36.3194 0000522  98.0075 341.3327 12.62266665561912
GLOBALSTAR M081 [+]     
1 37743U 11033E   23251.61440609 -.00000106  00000+0 -10792-4 0  9996
2 37743  51.9975  38.6257 0000533  71.5592   9.4025 12.62270629562069
GLOBALSTAR M089 [+]     
1 37744U 11033F   23251.58039250 -.00000093  00000+0  57677-4 0  9996
2 37744  51.9960 353.0819 0000787  85.2051  20.7472 12.62266409562901
